ATLAS CENTAUR R/B       
1 06155U 72065B   25317.26174373  .00003544  00000+0  48978-3 0  9992
2 06155  35.0019 267.8607 0033115 111.4712 248.9525 14.77299237824036
SL-8 R/B                
1 08459U 75112B   25317.19686791  .00000731  00000+0  24931-3 0  9999
2 08459  74.0610 233.1943 0015762 348.7411  11.3388 14.38118065615126
SL-3 R/B                
1 10114U 77057B   25317.23856929  .00020951  00000+0  49240-3 0  9993
2 10114  97.5681 119.4417 0007494 353.2968   6.8177 15.42004207650366
SEASAT 1                
1 10967U 78064A   25317.28158907  .00001145  00000+0  35924-3 0  9992
2 10967 108.0065 241.2413 0002336 255.3668 104.7218 14.46012945489685
SL-14 R/B               
1 11267U 79011B   25317.20697337  .00001472  00000+0  14339-3 0  9996
2 11267  82.5261 207.0483 0017701  86.6661 273.6584 14.91718560511415
SL-8 R/B                
1 11574U 79089B   25317.14876466  .00000716  00000+0  22494-3 0  9998
2 11574  74.0679 306.7474 0015021 153.0738 207.1201 14.42253564419306
SL-14 R/B               
1 11672U 80005B   25317.27773460  .00001626  00000+0  16279-3 0  9996
2 11672  82.5158  57.6345 0015583 186.4285 173.6737 14.90735653459144
SL-8 R/B                
1 12139U 81003B   25317.24233911  .00041584  00000+0  11443-2 0  9997
2 12139  82.9336  37.3195 0282646 222.3677 135.5421 15.05520625297127
SL-3 R/B                
1 12465U 81046B   25317.30965860  .00023700  00000+0  61268-3 0  9999
2 12465  81.2330  69.1153 0020593  65.3773 294.9610 15.38747686420510
METEOR PRIRODA          
1 12585U 81065A   25317.13930882  .01120258  83731-3  96997-3 0  9990
2 12585  97.4653  21.8650 0004453 263.3601  96.7178 16.13488757426051
SL-3 R/B                
1 12904U 81103B   25317.23350590  .00015547  00000+0  72459-3 0  9995
2 12904  81.1610 349.8996 0012541 328.3581  31.6894 15.19715215955531
SL-3 R/B                
1 13068U 82013B   25317.23459479  .00011886  00000+0  53573-3 0  9992
2 13068  81.1730 297.1392 0022033 208.3414 151.6621 15.20709172386648
