CCSDS_OMM_VERS = 2.0
CREATION_DATE  = 
ORIGINATOR     = 

OBJECT_NAME    = ATLAS CENTAUR R/B
OBJECT_ID      = 1972-065B
CENTER_NAME    = EARTH
REF_FRAME      = TEME
TIME_SYSTEM    = UTC
MEAN_ELEMENT_THEORY = SGP/SGP4

EPOCH          = 2025-11-13T06:16:54.658272
MEAN_MOTION    = 14.77299237
ECCENTRICITY   = .00331153
INCLINATION    = 35.0019
RA_OF_ASC_NODE = 267.8607
ARG_OF_PERICENTER = 111.4712
MEAN_ANOMALY   = 248.9525

EPHEMERIS_TYPE = 0
CLASSIFICATION_TYPE = U
NORAD_CAT_ID   = 6155
ELEMENT_SET_NO = 999
REV_AT_EPOCH   = 82403
BSTAR          = .48977687E-3
MEAN_MOTION_DOT = .3544E-4
MEAN_MOTION_DDOT = 0

CCSDS_OMM_VERS = 2.0
CREATION_DATE  = 
ORIGINATOR     = 

OBJECT_NAME    = SL-8 R/B
OBJECT_ID      = 1975-112B
CENTER_NAME    = EARTH
REF_FRAME      = TEME
TIME_SYSTEM    = UTC
MEAN_ELEMENT_THEORY = SGP/SGP4

EPOCH          = 2025-11-13T04:43:29.387424
MEAN_MOTION    = 14.38118065
ECCENTRICITY   = .00157621
INCLINATION    = 74.0610
RA_OF_ASC_NODE = 233.1943
ARG_OF_PERICENTER = 348.7411
MEAN_ANOMALY   = 11.3388

EPHEMERIS_TYPE = 0
CLASSIFICATION_TYPE = U
NORAD_CAT_ID   = 8459
ELEMENT_SET_NO = 999
REV_AT_EPOCH   = 61512
BSTAR          = .24930578E-3
MEAN_MOTION_DOT = .731E-5
MEAN_MOTION_DDOT = 0

CCSDS_OMM_VERS = 2.0
CREATION_DATE  = 
ORIGINATOR     = 

OBJECT_NAME    = SL-3 R/B
OBJECT_ID      = 1977-057B
CENTER_NAME    = EARTH
REF_FRAME      = TEME
TIME_SYSTEM    = UTC
MEAN_ELEMENT_THEORY = SGP/SGP4

EPOCH          = 2025-11-13T05:43:32.386656
MEAN_MOTION    = 15.42004207
ECCENTRICITY   = .00074948
INCLINATION    = 97.5681
RA_OF_ASC_NODE = 119.4417
ARG_OF_PERICENTER = 353.2968
MEAN_ANOMALY   = 6.8177

EPHEMERIS_TYPE = 0
CLASSIFICATION_TYPE = U
NORAD_CAT_ID   = 10114
ELEMENT_SET_NO = 999
REV_AT_EPOCH   = 65036
BSTAR          = .49239794E-3
MEAN_MOTION_DOT = .20951E-3
MEAN_MOTION_DDOT = 0

CCSDS_OMM_VERS = 2.0
CREATION_DATE  = 
ORIGINATOR     = 

OBJECT_NAME    = SEASAT 1
OBJECT_ID      = 1978-064A
CENTER_NAME    = EARTH
REF_FRAME      = TEME
TIME_SYSTEM    = UTC
MEAN_ELEMENT_THEORY = SGP/SGP4

EPOCH          = 2025-11-13T06:45:29.295648
MEAN_MOTION    = 14.46012945
ECCENTRICITY   = .00023363
INCLINATION    = 108.0065
RA_OF_ASC_NODE = 241.2413
ARG_OF_PERICENTER = 255.3668
MEAN_ANOMALY   = 104.7218

EPHEMERIS_TYPE = 0
CLASSIFICATION_TYPE = U
NORAD_CAT_ID   = 10967
ELEMENT_SET_NO = 999
REV_AT_EPOCH   = 48968
BSTAR          = .35924146E-3
MEAN_MOTION_DOT = .1145E-4
MEAN_MOTION_DDOT = 0

CCSDS_OMM_VERS = 2.0
CREATION_DATE  = 
ORIGINATOR     = 

OBJECT_NAME    = SL-14 R/B
OBJECT_ID      = 1979-011B
CENTER_NAME    = EARTH
REF_FRAME      = TEME
TIME_SYSTEM    = UTC
MEAN_ELEMENT_THEORY = SGP/SGP4

EPOCH          = 2025-11-13T04:58:02.499168
MEAN_MOTION    = 14.91718560
ECCENTRICITY   = .00177014
INCLINATION    = 82.5261
RA_OF_ASC_NODE = 207.0483
ARG_OF_PERICENTER = 86.6661
MEAN_ANOMALY   = 273.6584

EPHEMERIS_TYPE = 0
CLASSIFICATION_TYPE = U
NORAD_CAT_ID   = 11267
ELEMENT_SET_NO = 999
REV_AT_EPOCH   = 51141
BSTAR          = .14339435E-3
MEAN_MOTION_DOT = .1472E-4
MEAN_MOTION_DDOT = 0

CCSDS_OMM_VERS = 2.0
CREATION_DATE  = 
ORIGINATOR     = 

OBJECT_NAME    = SL-8 R/B
OBJECT_ID      = 1979-089B
CENTER_NAME    = EARTH
REF_FRAME      = TEME
TIME_SYSTEM    = UTC
MEAN_ELEMENT_THEORY = SGP/SGP4

EPOCH          = 2025-11-13T03:34:13.266624
MEAN_MOTION    = 14.42253564
ECCENTRICITY   = .00150211
INCLINATION    = 74.0679
RA_OF_ASC_NODE = 306.7474
ARG_OF_PERICENTER = 153.0738
MEAN_ANOMALY   = 207.1201

EPHEMERIS_TYPE = 0
CLASSIFICATION_TYPE = U
NORAD_CAT_ID   = 11574
ELEMENT_SET_NO = 999
REV_AT_EPOCH   = 41930
BSTAR          = .22493965E-3
MEAN_MOTION_DOT = .716E-5
MEAN_MOTION_DDOT = 0

CCSDS_OMM_VERS = 2.0
CREATION_DATE  = 
ORIGINATOR     = 

OBJECT_NAME    = SL-14 R/B
OBJECT_ID      = 1980-005B
CENTER_NAME    = EARTH
REF_FRAME      = TEME
TIME_SYSTEM    = UTC
MEAN_ELEMENT_THEORY = SGP/SGP4

EPOCH          = 2025-11-13T06:39:56.269440
MEAN_MOTION    = 14.90735653
ECCENTRICITY   = .00155833
INCLINATION    = 82.5158
RA_OF_ASC_NODE = 57.6345
ARG_OF_PERICENTER = 186.4285
MEAN_ANOMALY   = 173.6737

EPHEMERIS_TYPE = 0
CLASSIFICATION_TYPE = U
NORAD_CAT_ID   = 11672
ELEMENT_SET_NO = 999
REV_AT_EPOCH   = 45914
BSTAR          = .16279396E-3
MEAN_MOTION_DOT = .1626E-4
MEAN_MOTION_DDOT = 0

CCSDS_OMM_VERS = 2.0
CREATION_DATE  = 
ORIGINATOR     = 

OBJECT_NAME    = SL-8 R/B
OBJECT_ID      = 1981-003B
CENTER_NAME    = EARTH
REF_FRAME      = TEME
TIME_SYSTEM    = UTC
MEAN_ELEMENT_THEORY = SGP/SGP4

EPOCH          = 2025-11-13T05:48:58.099104
MEAN_MOTION    = 15.05520625
ECCENTRICITY   = .02826462
INCLINATION    = 82.9336
RA_OF_ASC_NODE = 37.3195
ARG_OF_PERICENTER = 222.3677
MEAN_ANOMALY   = 135.5421

EPHEMERIS_TYPE = 0
CLASSIFICATION_TYPE = U
NORAD_CAT_ID   = 12139
ELEMENT_SET_NO = 999
REV_AT_EPOCH   = 29712
BSTAR          = .11442542E-2
MEAN_MOTION_DOT = .41584E-3
MEAN_MOTION_DDOT = 0

CCSDS_OMM_VERS = 2.0
CREATION_DATE  = 
ORIGINATOR     = 

OBJECT_NAME    = SL-3 R/B
OBJECT_ID      = 1981-046B
CENTER_NAME    = EARTH
REF_FRAME      = TEME
TIME_SYSTEM    = UTC
MEAN_ELEMENT_THEORY = SGP/SGP4

EPOCH          = 2025-11-13T07:25:54.503040
MEAN_MOTION    = 15.38747686
ECCENTRICITY   = .00205937
INCLINATION    = 81.2330
RA_OF_ASC_NODE = 69.1153
ARG_OF_PERICENTER = 65.3773
MEAN_ANOMALY   = 294.9610

EPHEMERIS_TYPE = 0
CLASSIFICATION_TYPE = U
NORAD_CAT_ID   = 12465
ELEMENT_SET_NO = 999
REV_AT_EPOCH   = 42051
BSTAR          = .61268178E-3
MEAN_MOTION_DOT = .237E-3
MEAN_MOTION_DDOT = 0

CCSDS_OMM_VERS = 2.0
CREATION_DATE  = 
ORIGINATOR     = 

OBJECT_NAME    = METEOR PRIRODA
OBJECT_ID      = 1981-065A
CENTER_NAME    = EARTH
REF_FRAME      = TEME
TIME_SYSTEM    = UTC
MEAN_ELEMENT_THEORY = SGP/SGP4

EPOCH          = 2025-11-13T03:20:36.282048
MEAN_MOTION    = 16.13488757
ECCENTRICITY   = .00044535
INCLINATION    = 97.4653
RA_OF_ASC_NODE = 21.8650
ARG_OF_PERICENTER = 263.3601
MEAN_ANOMALY   = 96.7178

EPHEMERIS_TYPE = 0
CLASSIFICATION_TYPE = U
NORAD_CAT_ID   = 12585
ELEMENT_SET_NO = 999
REV_AT_EPOCH   = 42605
BSTAR          = .96997004E-3
MEAN_MOTION_DOT = .1120258E-1
MEAN_MOTION_DDOT = .83730902E-3

CCSDS_OMM_VERS = 2.0
CREATION_DATE  = 
ORIGINATOR     = 

OBJECT_NAME    = SL-3 R/B
OBJECT_ID      = 1981-103B
CENTER_NAME    = EARTH
REF_FRAME      = TEME
TIME_SYSTEM    = UTC
MEAN_ELEMENT_THEORY = SGP/SGP4

EPOCH          = 2025-11-13T05:36:14.909760
MEAN_MOTION    = 15.19715215
ECCENTRICITY   = .00125417
INCLINATION    = 81.1610
RA_OF_ASC_NODE = 349.8996
ARG_OF_PERICENTER = 328.3581
MEAN_ANOMALY   = 31.6894

EPHEMERIS_TYPE = 0
CLASSIFICATION_TYPE = U
NORAD_CAT_ID   = 12904
ELEMENT_SET_NO = 999
REV_AT_EPOCH   = 95553
BSTAR          = .72458595E-3
MEAN_MOTION_DOT = .15547E-3
MEAN_MOTION_DDOT = 0

CCSDS_OMM_VERS = 2.0
CREATION_DATE  = 
ORIGINATOR     = 

OBJECT_NAME    = SL-3 R/B
OBJECT_ID      = 1982-013B
CENTER_NAME    = EARTH
REF_FRAME      = TEME
TIME_SYSTEM    = UTC
MEAN_ELEMENT_THEORY = SGP/SGP4

EPOCH          = 2025-11-13T05:37:48.989856
MEAN_MOTION    = 15.20709172
ECCENTRICITY   = .00220332
INCLINATION    = 81.1730
RA_OF_ASC_NODE = 297.1392
ARG_OF_PERICENTER = 208.3414
MEAN_ANOMALY   = 151.6621

EPHEMERIS_TYPE = 0
CLASSIFICATION_TYPE = U
NORAD_CAT_ID   = 13068
ELEMENT_SET_NO = 999
REV_AT_EPOCH   = 38664
BSTAR          = .53573172E-3
MEAN_MOTION_DOT = .11886E-3
MEAN_MOTION_DDOT = 0

